[
    {
        "Altitude(m)": 622205.8369670737,
        "Argument of Periapsis(deg)": 0.0,
        "Eccentricity": 0.0,
        "Inclination(deg)": 60.0,
        "Latitude(deg)": -52.16235117006099,
        "Longitude(deg)": 57.70049547418568,
        "Mean Anomaly(deg)": -114.5455,
        "RAAN(deg)": 290.0,
        "Satellite Name": "Test1 1291",
        "Satellite Number": 1291,
        "Semi-Major Axis(m)": 6980739.136638005,
        "Time(s)": 0
    },
    {
        "Altitude(m)": 622344.743222132,
        "Argument of Periapsis(deg)": 0.00010418945913296404,
        "Eccentricity": 0.0,
        "Inclination(deg)": 60.0,
        "Latitude(deg)": -52.519929703834414,
        "Longitude(deg)": 58.48170765108752,
        "Mean Anomaly(deg)": -113.92539385453817,
        "RAAN(deg)": 289.99957995086027,
        "Satellite Name": "Test1 1291",
        "Satellite Number": 1291,
        "Semi-Major Axis(m)": 6980739.136638005,
        "Time(s)": 10
    },
    {
        "Altitude(m)": 622480.8058300017,
        "Argument of Periapsis(deg)": 0.0002083789182659281,
        "Eccentricity": 0.0,
        "Inclination(deg)": 60.0,
        "Latitude(deg)": -52.871671625316544,
        "Longitude(deg)": 59.27625189267046,
        "Mean Anomaly(deg)": -113.30528770907642,
        "RAAN(deg)": 289.99915990172053,
        "Satellite Name": "Test1 1291",
        "Satellite Number": 1291,
        "Semi-Major Axis(m)": 6980739.136638005,
        "Time(s)": 20
    },
    {
        "Altitude(m)": 622613.9715594496,
        "Argument of Periapsis(deg)": 0.00031256837739889213,
        "Eccentricity": 0.0,
        "Inclination(deg)": 60.0,
        "Latitude(deg)": -53.21740907413764,
        "Longitude(deg)": 60.084289163462046,
        "Mean Anomaly(deg)": -112.68518156361452,
        "RAAN(deg)": 289.9987398525808,
        "Satellite Name": "Test1 1291",
        "Satellite Number": 1291,
        "Semi-Major Axis(m)": 6980739.136638005,
        "Time(s)": 30
    },
    {
        "Altitude(m)": 622744.1882894675,
        "Argument of Periapsis(deg)": 0.0004167578365318562,
        "Eccentricity": 0.0,
        "Inclination(deg)": 60.0,
        "Latitude(deg)": -53.556970783089625,
        "Longitude(deg)": 60.90596880471228,
        "Mean Anomaly(deg)": -112.06507541815274,
        "RAAN(deg)": 289.99831980344106,
        "Satellite Name": "Test1 1291",
        "Satellite Number": 1291,
        "Semi-Major Axis(m)": 6980739.136638005,
        "Time(s)": 40
    },
    {
        "Altitude(m)": 622871.4050315266,
        "Argument of Periapsis(deg)": 0.0005209472956648203,
        "Eccentricity": 0.0,
        "Inclination(deg)": 60.0,
        "Latitude(deg)": -53.890182200889456,
        "Longitude(deg)": 61.74142613790946,
        "Mean Anomaly(deg)": -111.44496927269091,
        "RAAN(deg)": 289.9978997543013,
        "Satellite Name": "Test1 1291",
        "Satellite Number": 1291,
        "Semi-Major Axis(m)": 6980739.136638005,
        "Time(s)": 50
    },
    {
        "Altitude(m)": 622995.5719513104,
        "Argument of Periapsis(deg)": 0.0006251367547977843,
        "Eccentricity": 0.0,
        "Inclination(deg)": 60.0,
        "Latitude(deg)": -54.21686563892566,
        "Longitude(deg)": 62.590781517560586,
        "Mean Anomaly(deg)": -110.82486312722907,
        "RAAN(deg)": 289.99747970516154,
        "Satellite Name": "Test1 1291",
        "Satellite Number": 1291,
        "Semi-Major Axis(m)": 6980739.136638005,
        "Time(s)": 60
    },
    {
        "Altitude(m)": 623116.6403899607,
        "Argument of Periapsis(deg)": 0.0007293262139307483,
        "Eccentricity": 0.0,
        "Inclination(deg)": 60.0,
        "Latitude(deg)": -54.53684044360646,
        "Longitude(deg)": 63.45413932473024,
        "Mean Anomaly(deg)": -110.20475698176726,
        "RAAN(deg)": 289.9970596560218,
        "Satellite Name": "Test1 1291",
        "Satellite Number": 1291,
        "Semi-Major Axis(m)": 6980739.136638005,
        "Time(s)": 70
    },
    {
        "Altitude(m)": 623234.5628847799,
        "Argument of Periapsis(deg)": 0.0008335156730637124,
        "Eccentricity": 0.0,
        "Inclination(deg)": 60.0,
        "Latitude(deg)": -54.849923195883704,
        "Longitude(deg)": 64.33158539411374,
        "Mean Anomaly(deg)": -109.58465083630539,
        "RAAN(deg)": 289.99663960688207,
        "Satellite Name": "Test1 1291",
        "Satellite Number": 1291,
        "Semi-Major Axis(m)": 6980739.136638005,
        "Time(s)": 80
    },
    {
        "Altitude(m)": 623349.2931894676,
        "Argument of Periapsis(deg)": 0.0009377051321966765,
        "Eccentricity": 0.0,
        "Inclination(deg)": 60.0,
        "Latitude(deg)": -55.155927939455346,
        "Longitude(deg)": 65.22318590743225,
        "Mean Anomaly(deg)": -108.96454469084354,
        "RAAN(deg)": 289.99621955774234,
        "Satellite Name": "Test1 1291",
        "Satellite Number": 1291,
        "Semi-Major Axis(m)": 6980739.136638005,
        "Time(s)": 90
    },
    {
        "Altitude(m)": 623460.7862937426,
        "Argument of Periapsis(deg)": 0.0010418945913296407,
        "Eccentricity": 0.0,
        "Inclination(deg)": 60.0,
        "Latitude(deg)": -55.454666439054535,
        "Longitude(deg)": 66.12898624883863,
        "Mean Anomaly(deg)": -108.3444385453817,
        "RAAN(deg)": 289.9957995086026,
        "Satellite Name": "Test1 1291",
        "Satellite Number": 1291,
        "Semi-Major Axis(m)": 6980739.136638005,
        "Time(s)": 100
    },
    {
        "Altitude(m)": 623568.9984425146,
        "Argument of Periapsis(deg)": 0.0011460840504626045,
        "Eccentricity": 0.0,
        "Inclination(deg)": 60.0,
        "Latitude(deg)": -55.7459484701014,
        "Longitude(deg)": 67.04900831961724,
        "Mean Anomaly(deg)": -107.7243323999199,
        "RAAN(deg)": 289.99537945946287,
        "Satellite Name": "Test1 1291",
        "Satellite Number": 1291,
        "Semi-Major Axis(m)": 6980739.136638005,
        "Time(s)": 110
    },
    {
        "Altitude(m)": 623673.8871544381,
        "Argument of Periapsis(deg)": 0.0012502735095955685,
        "Eccentricity": 0.0,
        "Inclination(deg)": 60.0,
        "Latitude(deg)": -56.02958214081827,
        "Longitude(deg)": 67.98324934974926,
        "Mean Anomaly(deg)": -107.10422625445803,
        "RAAN(deg)": 289.99495941032313,
        "Satellite Name": "Test1 1291",
        "Satellite Number": 1291,
        "Semi-Major Axis(m)": 6980739.136638005,
        "Time(s)": 120
    },
    {
        "Altitude(m)": 623775.4112399728,
        "Argument of Periapsis(deg)": 0.0013544629687285324,
        "Eccentricity": 0.0,
        "Inclination(deg)": 60.0,
        "Latitude(deg)": -56.30537424770631,
        "Longitude(deg)": 68.9316807070293,
        "Mean Anomaly(deg)": -106.48412010899618,
        "RAAN(deg)": 289.99453936118334,
        "Satellite Name": "Test1 1291",
        "Satellite Number": 1291,
        "Semi-Major Axis(m)": 6980739.136638005,
        "Time(s)": 130
    },
    {
        "Altitude(m)": 623873.5308188364,
        "Argument of Periapsis(deg)": 0.0014586524278614966,
        "Eccentricity": 0.0,
        "Inclination(deg)": 60.0,
        "Latitude(deg)": -56.57313066502922,
        "Longitude(deg)": 69.89424520616676,
        "Mean Anomaly(deg)": -105.86401396353432,
        "RAAN(deg)": 289.9941193120436,
        "Satellite Name": "Test1 1291",
        "Satellite Number": 1291,
        "Semi-Major Axis(m)": 6980739.136638005,
        "Time(s)": 140
    },
    {
        "Altitude(m)": 623968.2073369379,
        "Argument of Periapsis(deg)": 0.0015628418869944607,
        "Eccentricity": 0.0,
        "Inclination(deg)": 60.0,
        "Latitude(deg)": -56.83265676865222,
        "Longitude(deg)": 70.8708559606486,
        "Mean Anomaly(deg)": -105.24390781807253,
        "RAAN(deg)": 289.99369926290393,
        "Satellite Name": "Test1 1291",
        "Satellite Number": 1291,
        "Semi-Major Axis(m)": 6980739.136638005,
        "Time(s)": 150
    },
    {
        "Altitude(m)": 624059.4035827068,
        "Argument of Periapsis(deg)": 0.0016670313461274247,
        "Eccentricity": 0.0,
        "Inclination(deg)": 60.0,
        "Latitude(deg)": -57.08375789425007,
        "Longitude(deg)": 71.86139528320923,
        "Mean Anomaly(deg)": -104.62380167261067,
        "RAAN(deg)": 289.99327921376414,
        "Satellite Name": "Test1 1291",
        "Satellite Number": 1291,
        "Semi-Major Axis(m)": 6980739.136638005,
        "Time(s)": 160
    },
    {
        "Altitude(m)": 624147.0837028396,
        "Argument of Periapsis(deg)": 0.0017712208052603888,
        "Eccentricity": 0.0,
        "Inclination(deg)": 60.0,
        "Latitude(deg)": -57.32623982951505,
        "Longitude(deg)": 72.86571214232829,
        "Mean Anomaly(deg)": -104.00369552714892,
        "RAAN(deg)": 289.9928591646244,
        "Satellite Name": "Test1 1291",
        "Satellite Number": 1291,
        "Semi-Major Axis(m)": 6980739.136638005,
        "Time(s)": 170
    },
    {
        "Altitude(m)": 624231.2132175056,
        "Argument of Periapsis(deg)": 0.001875410264393353,
        "Eccentricity": 0.0,
        "Inclination(deg)": 60.0,
        "Latitude(deg)": -57.55990933956757,
        "Longitude(deg)": 73.88362122220724,
        "Mean Anomaly(deg)": -103.38358938168707,
        "RAAN(deg)": 289.9924391154847,
        "Satellite Name": "Test1 1291",
        "Satellite Number": 1291,
        "Semi-Major Axis(m)": 6980739.136638005,
        "Time(s)": 180
    },
    {
        "Altitude(m)": 624311.7590349205,
        "Argument of Periapsis(deg)": 0.0019795997235263173,
        "Eccentricity": 0.0,
        "Inclination(deg)": 60.0,
        "Latitude(deg)": -57.78457472431017,
        "Longitude(deg)": 74.91490209627095,
        "Mean Anomaly(deg)": -102.76348323622527,
        "RAAN(deg)": 289.99201906634494,
        "Satellite Name": "Test1 1291",
        "Satellite Number": 1291,
        "Semi-Major Axis(m)": 6980739.136638005,
        "Time(s)": 190
    }
]